[
    {
        "Altitude(m)": 711390.4458586317,
        "Argument of Periapsis(deg)": 0.005695060593313534,
        "Eccentricity": 0.0,
        "Inclination(deg)": 45.0,
        "Latitude(deg)": -29.19511783656165,
        "Longitude(deg)": -154.13531012671456,
        "Mean Anomaly(deg)": -43.32429167625956,
        "RAAN(deg)": 339.99462402927094,
        "Satellite Name": "Constellation 1 1515",
        "Satellite Number": 1515,
        "Semi-Major Axis(m)": 7083131.272910544,
        "Time(s)": 95
    },
    {
        "Altitude(m)": 711376.6808903451,
        "Argument of Periapsis(deg)": 0.00575500859955894,
        "Eccentricity": 0.0,
        "Inclination(deg)": 45.0,
        "Latitude(deg)": -29.159322750435564,
        "Longitude(deg)": -154.0833849232015,
        "Mean Anomaly(deg)": -43.26359053600967,
        "RAAN(deg)": 339.99456744010536,
        "Satellite Name": "Constellation 1 1515",
        "Satellite Number": 1515,
        "Semi-Major Axis(m)": 7083131.272910544,
        "Time(s)": 96
    },
    {
        "Altitude(m)": 711362.9129885542,
        "Argument of Periapsis(deg)": 0.005814956605804345,
        "Eccentricity": 0.0,
        "Inclination(deg)": 45.0,
        "Latitude(deg)": -29.123503979259382,
        "Longitude(deg)": -154.03149826588105,
        "Mean Anomaly(deg)": -43.20288939575973,
        "RAAN(deg)": 339.9945108509398,
        "Satellite Name": "Constellation 1 1515",
        "Satellite Number": 1515,
        "Semi-Major Axis(m)": 7083131.272910544,
        "Time(s)": 97
    },
    {
        "Altitude(m)": 711349.1422013148,
        "Argument of Periapsis(deg)": 0.00587490461204975,
        "Eccentricity": 0.0,
        "Inclination(deg)": 45.0,
        "Latitude(deg)": -29.0876615731331,
        "Longitude(deg)": -153.97965026450242,
        "Mean Anomaly(deg)": -43.1421882555098,
        "RAAN(deg)": 339.99445426177425,
        "Satellite Name": "Constellation 1 1515",
        "Satellite Number": 1515,
        "Semi-Major Axis(m)": 7083131.272910544,
        "Time(s)": 98
    },
    {
        "Altitude(m)": 711335.3685766977,
        "Argument of Periapsis(deg)": 0.005934852618295156,
        "Eccentricity": 0.0,
        "Inclination(deg)": 45.0,
        "Latitude(deg)": -29.051795582086516,
        "Longitude(deg)": -153.9278408606752,
        "Mean Anomaly(deg)": -43.08148711526001,
        "RAAN(deg)": 339.9943976726086,
        "Satellite Name": "Constellation 1 1515",
        "Satellite Number": 1515,
        "Semi-Major Axis(m)": 7083131.272910544,
        "Time(s)": 99
    },
    {
        "Altitude(m)": 711321.5921627503,
        "Argument of Periapsis(deg)": 0.005994800624540561,
        "Eccentricity": 0.0,
        "Inclination(deg)": 45.0,
        "Latitude(deg)": -29.01590605607846,
        "Longitude(deg)": -153.87606999596608,
        "Mean Anomaly(deg)": -43.02078597501002,
        "RAAN(deg)": 339.99434108344303,
        "Satellite Name": "Constellation 1 1515",
        "Satellite Number": 1515,
        "Semi-Major Axis(m)": 7083131.272910544,
        "Time(s)": 100
    },
    {
        "Altitude(m)": 711307.8130075475,
        "Argument of Periapsis(deg)": 0.006054748630785968,
        "Eccentricity": 0.0,
        "Inclination(deg)": 45.0,
        "Latitude(deg)": -28.97999304499751,
        "Longitude(deg)": -153.82433761190117,
        "Mean Anomaly(deg)": -42.96008483476009,
        "RAAN(deg)": 339.9942844942775,
        "Satellite Name": "Constellation 1 1515",
        "Satellite Number": 1515,
        "Semi-Major Axis(m)": 7083131.272910544,
        "Time(s)": 101
    },
    {
        "Altitude(m)": 711294.0311591398,
        "Argument of Periapsis(deg)": 0.006114696637031373,
        "Eccentricity": 0.0,
        "Inclination(deg)": 45.0,
        "Latitude(deg)": -28.944056598661735,
        "Longitude(deg)": -153.77264364996532,
        "Mean Anomaly(deg)": -42.899383694510256,
        "RAAN(deg)": 339.9942279051119,
        "Satellite Name": "Constellation 1 1515",
        "Satellite Number": 1515,
        "Semi-Major Axis(m)": 7083131.272910544,
        "Time(s)": 102
    },
    {
        "Altitude(m)": 711280.2466655886,
        "Argument of Periapsis(deg)": 0.006174644643276778,
        "Eccentricity": 0.0,
        "Inclination(deg)": 45.0,
        "Latitude(deg)": -28.908096766818655,
        "Longitude(deg)": -153.72098805160306,
        "Mean Anomaly(deg)": -42.838682554260366,
        "RAAN(deg)": 339.9941713159464,
        "Satellite Name": "Constellation 1 1515",
        "Satellite Number": 1515,
        "Semi-Major Axis(m)": 7083131.272910544,
        "Time(s)": 103
    },
    {
        "Altitude(m)": 711266.4595749568,
        "Argument of Periapsis(deg)": 0.006234592649522184,
        "Eccentricity": 0.0,
        "Inclination(deg)": 45.0,
        "Latitude(deg)": -28.872113599144992,
        "Longitude(deg)": -153.6693709263161,
        "Mean Anomaly(deg)": -42.77798141401038,
        "RAAN(deg)": 339.99411472678077,
        "Satellite Name": "Constellation 1 1515",
        "Satellite Number": 1515,
        "Semi-Major Axis(m)": 7083131.272910544,
        "Time(s)": 104
    },
    {
        "Altitude(m)": 711252.669935301,
        "Argument of Periapsis(deg)": 0.00629454065576759,
        "Eccentricity": 0.0,
        "Inclination(deg)": 45.0,
        "Latitude(deg)": -28.836107145248324,
        "Longitude(deg)": -153.61779187927613,
        "Mean Anomaly(deg)": -42.717280273760544,
        "RAAN(deg)": 339.9940581376152,
        "Satellite Name": "Constellation 1 1515",
        "Satellite Number": 1515,
        "Semi-Major Axis(m)": 7083131.272910544,
        "Time(s)": 105
    },
    {
        "Altitude(m)": 711238.8777946807,
        "Argument of Periapsis(deg)": 0.006354488662012995,
        "Eccentricity": 0.0,
        "Inclination(deg)": 45.0,
        "Latitude(deg)": -28.80007745466476,
        "Longitude(deg)": -153.56625101990699,
        "Mean Anomaly(deg)": -42.656579133510704,
        "RAAN(deg)": 339.99400154844966,
        "Satellite Name": "Constellation 1 1515",
        "Satellite Number": 1515,
        "Semi-Major Axis(m)": 7083131.272910544,
        "Time(s)": 106
    },
    {
        "Altitude(m)": 711225.0832011502,
        "Argument of Periapsis(deg)": 0.006414436668258401,
        "Eccentricity": 0.0,
        "Inclination(deg)": 45.0,
        "Latitude(deg)": -28.764024576860574,
        "Longitude(deg)": -153.51474828949762,
        "Mean Anomaly(deg)": -42.595877993260714,
        "RAAN(deg)": 339.9939449592841,
        "Satellite Name": "Constellation 1 1515",
        "Satellite Number": 1515,
        "Semi-Major Axis(m)": 7083131.272910544,
        "Time(s)": 107
    },
    {
        "Altitude(m)": 711211.2862027624,
        "Argument of Periapsis(deg)": 0.0064743846745038075,
        "Eccentricity": 0.0,
        "Inclination(deg)": 45.0,
        "Latitude(deg)": -28.72794856123189,
        "Longitude(deg)": -153.46328362929953,
        "Mean Anomaly(deg)": -42.53517685301078,
        "RAAN(deg)": 339.99388837011855,
        "Satellite Name": "Constellation 1 1515",
        "Satellite Number": 1515,
        "Semi-Major Axis(m)": 7083131.272910544,
        "Time(s)": 108
    },
    {
        "Altitude(m)": 711197.4868475787,
        "Argument of Periapsis(deg)": 0.0065343326807492125,
        "Eccentricity": 0.0,
        "Inclination(deg)": 45.0,
        "Latitude(deg)": -28.69184945710473,
        "Longitude(deg)": -153.41185698052723,
        "Mean Anomaly(deg)": -42.47447571276095,
        "RAAN(deg)": 339.993831780953,
        "Satellite Name": "Constellation 1 1515",
        "Satellite Number": 1515,
        "Semi-Major Axis(m)": 7083131.272910544,
        "Time(s)": 109
    },
    {
        "Altitude(m)": 711183.6851836393,
        "Argument of Periapsis(deg)": 0.0065942806869946176,
        "Eccentricity": 0.0,
        "Inclination(deg)": 45.0,
        "Latitude(deg)": -28.65572731373495,
        "Longitude(deg)": -153.36046828435883,
        "Mean Anomaly(deg)": -42.41377457251101,
        "RAAN(deg)": 339.99377519178734,
        "Satellite Name": "Constellation 1 1515",
        "Satellite Number": 1515,
        "Semi-Major Axis(m)": 7083131.272910544,
        "Time(s)": 110
    },
    {
        "Altitude(m)": 711169.8812590035,
        "Argument of Periapsis(deg)": 0.006654228693240024,
        "Eccentricity": 0.0,
        "Inclination(deg)": 45.0,
        "Latitude(deg)": -28.619582180308164,
        "Longitude(deg)": -153.3091176500336,
        "Mean Anomaly(deg)": -42.35307343226117,
        "RAAN(deg)": 339.9937186026218,
        "Satellite Name": "Constellation 1 1515",
        "Satellite Number": 1515,
        "Semi-Major Axis(m)": 7083131.272910544,
        "Time(s)": 111
    },
    {
        "Altitude(m)": 711156.0751217098,
        "Argument of Periapsis(deg)": 0.006714176699485429,
        "Eccentricity": 0.0,
        "Inclination(deg)": 45.0,
        "Latitude(deg)": -28.583414105940886,
        "Longitude(deg)": -153.25780468246433,
        "Mean Anomaly(deg)": -42.29237229201124,
        "RAAN(deg)": 339.99366201345623,
        "Satellite Name": "Constellation 1 1515",
        "Satellite Number": 1515,
        "Semi-Major Axis(m)": 7083131.272910544,
        "Time(s)": 112
    },
    {
        "Altitude(m)": 711142.2668198086,
        "Argument of Periapsis(deg)": 0.006774124705730835,
        "Eccentricity": 0.0,
        "Inclination(deg)": 45.0,
        "Latitude(deg)": -28.547223139678923,
        "Longitude(deg)": -153.20652949082054,
        "Mean Anomaly(deg)": -42.2316711517614,
        "RAAN(deg)": 339.9936054242907,
        "Satellite Name": "Constellation 1 1515",
        "Satellite Number": 1515,
        "Semi-Major Axis(m)": 7083131.272910544,
        "Time(s)": 113
    }
]